[Satellite]
VERSION=1.1
NAME=CORIOLIS
NICKNAME=CORIOLIS
TLE1=1 27640U 03001A   20157.92148394 -.00000000  00000-0  20727-4 0  9991
TLE2=2 27640  98.7260 167.5384 0015294  71.7618 347.3790 14.19039022901800
STATUS=0
